TK-1                    
1 42061U 17012A   17073.81761779  .00006450  00000-0  88402-4 0  9999
2 42061  96.9286  86.5201 0016535 229.9074 256.5406 15.57549470  1848
